GLOBAL-4                
1 44499U 19054E   25331.94600647  .00030730  00000+0  59012-3 0  9991
2 44499  45.0103 302.2716 0006094  76.4419 283.7150 15.47454044349028
ZY-1 02D                
1 44528U 19059A   25331.97130458  .00000222  00000+0  91881-4 0  9994
2 44528  98.3490  35.2976 0001801  50.2074 309.9271 14.35454249325471
TAURUS-1 (JINNIUZUO 1)  
1 44530U 19059C   25331.99013705  .00008684  00000+0  14958-2 0  9992
2 44530  98.6226 120.0351 0009102 219.3661 140.6882 14.68776717329077
ZHUHAI-1 03B            
1 44536U 19060C   25331.97661404  .00027992  00000+0  68524-3 0  9995
2 44536  97.5347 116.1821 0010743 333.3799  26.6894 15.40680633345206
ZHUHAI-1 03C            
1 44537U 19060D   25331.93229633  .00054641  00000+0  81659-3 0  9991
2 44537  97.5556 122.3877 0014325 290.2371  69.7342 15.54735814345591
ZHUHAI-1 03D            
1 44538U 19060E   25331.94675670  .00025141  00000+0  68565-3 0  9993
2 44538  97.5187 109.9521 0009614 316.8463  43.2027 15.37398000345030
ZHUHAI-1 03E            
1 44539U 19060F   25331.95808786  .00020859  00000+0  65109-3 0  9993
2 44539  97.5387 111.4960 0010017  16.6068 343.5500 15.33184922344856
ATLAS 5 CENTAUR DEB     
1 44694U 18079BG  25330.39470449 -.00000053  00000+0  00000+0 0  9992
2 44694  13.4045  55.8347 4746657 266.4439  40.2368  1.77426464 42966
GAOFEN-7                
1 44703U 19072A   25332.00759720  .00006347  00000+0  28415-3 0  9994
2 44703  97.2723  35.7102 0015911  27.4110 332.7963 15.21494890337054
JILIN-1 GAOFEN 2A       
1 44777U 19075A   25331.99295784  .00015576  00000+0  49408-3 0  9999
2 44777  97.5163  46.8586 0008675  84.1020 276.1211 15.32744954333991
NINGXIA-1 1             
1 44779U 19076A   25332.01820117 -.00000025  00000+0  68334-4 0  9994
2 44779  45.0082 358.8147 0012419 282.1147  77.8296 14.01998219309623
NINGXIA-1 5             
1 44783U 19076E   25331.96015252 -.00000027  00000+0  66845-4 0  9995
2 44783  45.0071 358.4223 0012336 271.6040  88.3381 14.01982919309532
KL-ALPHA A              
1 44785U 19077A   25331.97232227  .00000110  00000+0  13901-3 0  9998
2 44785  88.9165 244.6929 0010908 346.4304  13.6555 13.56018408298465
CARTOSAT-3              
1 44804U 19081A   25331.94271627  .00002405  00000+0  11738-3 0  9994
2 44804  97.4604  31.7115 0013569 133.5842 226.6522 15.19173638332917
JILIN-1 GAOFEN 2B       
1 44836U 19086A   25331.94400776  .00008592  00000+0  42909-3 0  9990
2 44836  97.5132  40.3572 0013796 304.0705  55.9219 15.17646649329936
DUCHIFAT-3              
1 44854U 19089C   25331.38136755  .00587859  13634-3  17418-2 0  9999
2 44854  36.9290 328.8159 0009993 178.5942 181.4858 15.91447537329687
ANGELS                  
1 44876U 19092D   25331.87164337  .00072924  00000+0  94045-3 0  9991
2 44876  97.4349 175.9309 0003550 216.6558 143.4455 15.58759454330675
TIANQIN 1 (CAS-6)       
1 44879U 19093A   25332.00392638  .00003292  00000+0  31373-3 0  9995
2 44879  97.7967  52.3600 0011651  10.3341 349.8116 14.94009683321991
ETRSS-1                 
1 44880U 19093B   25331.98944959  .00004524  00000+0  42657-3 0  9998
2 44880  97.7981  52.6627 0011847  12.2377 347.9128 14.94243834321998
TIANYAN 01              
1 44881U 19093C   25332.02202627  .00001219  00000+0  14517-3 0  9996
2 44881  97.7776  43.9818 0014409  33.8155 326.3976 14.86051632321532
TIANYAN 02              
1 44882U 19093D   25331.95765412  .00007504  00000+0  57851-3 0  9995
2 44882  97.7999  60.2841 0014380 351.9287   8.1704 15.01826370322370
CBERS 4A                
1 44883U 19093E   25331.97083977  .00001511  00000+0  19880-3 0  9999
2 44883  97.7766  40.4252 0003166 106.9868 253.1692 14.81591209321286
WEILAI 1R               
1 44884U 19093F   25332.01206708  .00005482  00000+0  46493-3 0  9996
2 44884  97.8028  56.7690 0010070   3.1163 357.0120 14.98318274322270
FLORIPASAT-1            
1 44885U 19093G   25331.97891963  .00007582  00000+0  59815-3 0  9999
2 44885  97.8053  60.1038 0011726  22.8095 337.3648 15.00967074322431
SHUNTIAN                
1 44886U 19093H   25332.01955436  .00003068  00000+0  29450-3 0  9999
2 44886  97.8131  56.3141 0012388  20.4448 339.7265 14.93773384322130
2019-093L               
1 44889U 19093L   25331.97465389  .00004665  00000+0  45328-3 0  9995
2 44889  97.7759  47.6295 0012259   7.9558 352.1854 14.93021597321763
ELEKTRO-L 3             
1 44903U 19095A   25331.98059291 -.00000077  00000+0  00000+0 0  9994
2 44903   0.0387 204.5795 0002420  62.7994 228.7850  1.00272022 21693
GONETS-M 14             
1 44905U 19096A   25331.96482500  .00000015  00000+0  36741-4 0  9995
2 44905  82.5246 209.3605 0012712 232.6105 127.3818 12.42899994268685
GONETS-M 15             
1 44906U 19096B   25331.99271270  .00000038  00000+0  20310-3 0  9998
2 44906  82.5265 209.7698 0014830 256.6738 103.2689 12.42865031268655
GONETS-M 16             
1 44907U 19096C   25331.94177051  .00000017  00000+0  49469-4 0  9990
2 44907  82.5211 208.8492 0010884 300.3511  59.6492 12.42884295268637
RS-44 & BREEZE-KM R/B   
1 44909U 19096E   25331.84694189  .00000034  00000+0  10054-3 0  9993
2 44909  82.5191 113.5047 0216589 255.0323 102.6712 12.79745578276599
JILIN-1 KUANFU 01       
1 45016U 20003A   25331.99388827  .00004323  00000+0  27260-3 0  9990
2 45016  97.5261  44.7991 0006582 285.3033  74.7468 15.09626733324969
XINGYUN-2 01            
1 45602U 20028A   25331.99121360  .00003682  00000+0  22663-3 0  9994
2 45602  97.4766 323.7009 0009494 166.3638 193.7850 15.10584459304452
XINGYUN-2 02            
1 45603U 20028B   25331.93887355  .00002768  00000+0  17224-3 0  9993
2 45603  97.5098 336.6172 0009611 240.0775 119.9501 15.10402599304445
HAIYANG-1D              
1 45721U 20036A   25331.97759006  .00000279  00000+0  11477-3 0  9997
2 45721  98.4345 273.2680 0003734  45.1679 314.9809 14.34234765286134
M2 PATHFINDER           
1 45727U 20037E   25332.00502456  .00004244  00000+0  31658-3 0  9993
2 45727  97.8123 156.0977 0012657 110.5731 249.6853 15.03359209295258
GAOFEN DUOMO (GFDM)     
1 45856U 20042A   25331.91204971  .00001144  00000+0  17012-3 0  9996
2 45856  97.8051  33.8136 0011728  10.7714 349.3745 14.76774726291304
ZINYUAN-3               
1 45939U 20051A   25331.98893368  .00006552  00000+0  29563-3 0  9991
2 45939  97.3100  40.9243 0002566 341.0192  19.0948 15.21325568296751
TYVAK-0172              
1 46267U 20059C   25331.60554310  .00034833  00000+0  66281-3 0  9995
2 46267  97.7285 200.8056 0001530  40.5827 319.5536 15.48154720287254
ION-MK01                
1 46274U 20061C   25331.92800991  .00065506  00000+0  65289-3 0  9998
2 46274  97.2205  41.9775 0000556 331.9326  28.1904 15.65471957291631
NEMO-HD                 
1 46277U 20061F   25332.01037380  .00011881  00000+0  30081-3 0  9995
2 46277  97.2231  31.2990 0002546  75.4631 284.6898 15.39887167290976
3CAT-5A                 
1 46292U 20061W   25331.90556252  .00017451  00000+0  45358-3 0  9995
2 46292  97.2721  30.6920 0003328 116.5260 243.6328 15.38995037289995
3CAT-5B                 
1 46293U 20061X   25331.64390885  .00017902  00000+0  45298-3 0  9999
2 46293  97.2730  31.0751 0003617 117.2740 242.8875 15.39811774289966
NAPA-1                  
1 46320U 20061BA  25331.96233809  .00035318  00000+0  67722-3 0  9994
2 46320  97.2791  37.4642 0001860  85.5241 274.6222 15.47925443290424
JILIN-1 GAOFEN 3B       
1 46454U 20065A   25331.95016002  .00062408  00000+0  81354-3 0  9996
2 46454  97.2564  21.2394 0004486 128.1201 232.0460 15.58509663288784
JILIN-1 GAOFEN 3E       
1 46457U 20065D   25331.99270894  .00034238  00000+0  70669-3 0  9991
2 46457  97.2620  17.4001 0017356 177.0133 183.1223 15.45624920288513
JILIN-1 GAOFEN 3F       
1 46458U 20065E   25331.99555764  .00032356  00000+0  69118-3 0  9990
2 46458  97.2557  15.3880 0018979 164.6983 195.4844 15.44594235288498
JILIN-1 GAOFEN 3G       
1 46459U 20065F   25331.96180851  .00037840  00000+0  71508-3 0  9998
2 46459  97.2658  20.1064 0017814  76.1344 284.1887 15.48156978288602
JILIN-1 GAOFEN 3H       
1 46460U 20065G   25331.97270858  .00035708  00000+0  69553-3 0  9996
2 46460  97.2574  17.1358 0010133  13.7023 346.4501 15.47415388288585
JILIN-1 GAOFEN 3J       
1 46462U 20065J   25331.94708142  .00058257  00000+0  81061-3 0  9999
2 46462  97.2595  20.9238 0005542 129.5418 230.6328 15.56767982288762
HAIYANG-2C              
1 46469U 20066A   25331.96940437 -.00000004  00000+0  70428-4 0  9998
2 46469  65.9972 356.2721 0014346 266.4997  93.4431 13.83374818261667
HJ-2A                   
1 46478U 20067A   25331.96505575  .00000235  00000+0  40917-4 0  9994
2 46478  97.9024  49.9157 0003606 166.4681 193.6626 14.76564248278562
HJ-2B                   
1 46479U 20067B   25332.00131771  .00001061  00000+0  15925-3 0  9992
2 46479  97.9082  50.8255 0000940  63.8067 296.3240 14.76567215278574
GONETS-M 17             
1 46486U 20068A   25331.96389105  .00000032  00000+0  16133-3 0  9990
2 46486  82.4953 112.6890 0023337 114.7736 245.5776 12.42865228234167
GONETS-M 18             
1 46487U 20068B   25332.00984609  .00000046  00000+0  25694-3 0  9994
2 46487  82.4908 111.8574 0020702 111.5752 248.7537 12.42892307234151
GONETS-M 19             
1 46488U 20068C   25331.90606234  .00000036  00000+0  18781-3 0  9996
2 46488  82.4932 112.3328 0014390 125.9929 234.2487 12.42884282234240
DEKART                  
1 46493U 20068H   25331.92770485  .00014206  00000+0  46737-3 0  9990
2 46493  97.8729 322.6783 0008251 282.2857  77.7459 15.31609317284909
NORBI                   
1 46494U 20068J   25331.88218471  .00023479  00000+0  62320-3 0  9996
2 46494  97.8677 326.6083 0005842 263.4235  96.6344 15.38286555285156
SALSAT                  
1 46495U 20068K   25331.91022478  .00010136  00000+0  39732-3 0  9998
2 46495  97.8784 318.3880 0008800 292.6702  67.3604 15.25949551284622
